[{"OBJECT_NAME":"OPS 5712 (P\/L 153)","OBJECT_ID":"1967-053H","EPOCH":"2026-03-09T22:39:20.284128","MEAN_MOTION":13.96811985,"ECCENTRICITY":0.00092151,"INCLINATION":69.9762,"RA_OF_ASC_NODE":328.0261,"ARG_OF_PERICENTER":309.8134,"MEAN_ANOMALY":50.216,"EPHEMERIS_TYPE":0,"CLASSIFICATION_TYPE":"U","NORAD_CAT_ID":2874,"ELEMENT_SET_NO":999,"REV_AT_EPOCH":99292,"BSTAR":8.3692014e-5,"MEAN_MOTION_DOT":6.3e-7,"MEAN_MOTION_DDOT":0},{"OBJECT_NAME":"COSMOS 2251 DEB","OBJECT_ID":"1993-036BXS","EPOCH":"2026-03-05T10:32:54.754368","MEAN_MOTION":13.72200584,"ECCENTRICITY":0.0322895,"INCLINATION":74.0821,"RA_OF_ASC_NODE":301.7772,"ARG_OF_PERICENTER":48.2079,"MEAN_ANOMALY":129.1317,"EPHEMERIS_TYPE":0,"CLASSIFICATION_TYPE":"U","NORAD_CAT_ID":47062,"ELEMENT_SET_NO":999,"REV_AT_EPOCH":56736,"BSTAR":0.002142,"MEAN_MOTION_DOT":2.813e-5,"MEAN_MOTION_DDOT":0}]
